{"type": "FeatureCollection", "features": [ {"type": "Feature", "properties": {"norad_id": 66687, "name": "TRANSPORTER-15X", "group": "last-30-days", "lat": -72.73869132891676, "lon": -132.4137614305316, "alt_km": 527.4618823485453, "timestamp": "2025-12-26T23:26:40.920320+00:00", "meta": {"OBJECT_NAME": "TRANSPORTER-15X", "OBJECT_ID": "2025-276X", "EPOCH": "2025-12-26T17:34:36.647904", "MEAN_MOTION": 15.16805458, "ECCENTRICITY": 0.0008104, "INCLINATION": 97.4384, "RA_OF_ASC_NODE": 72.2105, "ARG_OF_PERICENTER": 41.628, "MEAN_ANOMALY": 318.5569, "EPHEMERIS_TYPE": 0, "CLASSIFICATION_TYPE": "U", "NORAD_CAT_ID": 66687, "ELEMENT_SET_NO": 999, "REV_AT_EPOCH": 424, "BSTAR": 0.00066506, "MEAN_MOTION_DOT": 0.00013026, "MEAN_MOTION_DDOT": 0}, "tle": {"line1": "1 66687U 25276X   25360.73236861  .00013026  00000+0  66506-3 0  9994", "line2": "2 66687  97.4384  72.2105 0008104  41.6280 318.5569 15.16805458  4241"}}, "geometry": {"type": "Point", "coordinates": [-132.4137614305316, -72.73869132891676]}}, {"type": "Feature", "properties": {"norad_id": 66688, "name": "TRANSPORTER-15Y", "group": "last-30-days", "lat": -65.14210050597255, "lon": 88.87406516842233, "alt_km": 520.8944980157075, "timestamp": "2025-12-26T23:26:40.920332+00:00", "meta": {"OBJECT_NAME": "TRANSPORTER-15Y", "OBJECT_ID": "2025-276Y", "EPOCH": "2025-12-26T15:49:17.606784", "MEAN_MOTION": 15.17138804, "ECCENTRICITY": 0.0003811, "INCLINATION": 97.4426, "RA_OF_ASC_NODE": 72.1727, "ARG_OF_PERICENTER": 223.3358, "MEAN_ANOMALY": 136.7576, "EPHEMERIS_TYPE": 0, "CLASSIFICATION_TYPE": "U", "NORAD_CAT_ID": 66688, "ELEMENT_SET_NO": 999, "REV_AT_EPOCH": 423, "BSTAR": 0.00047879, "MEAN_MOTION_DOT": 9.438e-05, "MEAN_MOTION_DDOT": 0}, "tle": {"line1": "1 66688U 25276Y   25360.65923156  .00009438  00000+0  47879-3 0  9990", "line2": "2 66688  97.4426  72.1727 0003811 223.3358 136.7576 15.17138804  4235"}}, "geometry": {"type": "Point", "coordinates": [88.87406516842233, -65.14210050597255]}}, {"type": "Feature", "properties": {"norad_id": 66689, "name": "TRANSPORTER-15Z", "group": "last-30-days", "lat": -21.071610774911957, "lon": -110.30337325104955, "alt_km": 422.2254871519599, "timestamp": "2025-12-26T23:26:40.920343+00:00", "meta": {"OBJECT_NAME": "TRANSPORTER-15Z", "OBJECT_ID": "2025-276Z", "EPOCH": "2025-12-22T21:27:46.425312", "MEAN_MOTION": 15.23073772, "ECCENTRICITY": 0.00272271, "INCLINATION": 97.4409, "RA_OF_ASC_NODE": 68.4858, "ARG_OF_PERICENTER": 260.8557, "MEAN_ANOMALY": 98.9599, "EPHEMERIS_TYPE": 0, "CLASSIFICATION_TYPE": "U", "NORAD_CAT_ID": 66689, "ELEMENT_SET_NO": 999, "REV_AT_EPOCH": 366, "BSTAR": 0.086131248, "MEAN_MOTION_DOT": 0.02294864, "MEAN_MOTION_DDOT": 0}, "tle": {"line1": "1 66689U 25276Z   25356.89428733  .02294864  00000+0  86131-1 0  9996", "line2": "2 66689  97.4409  68.4858 0027227 260.8557  98.9599 15.23073772  3663"}}, "geometry": {"type": "Point", "coordinates": [-110.30337325104955, -21.071610774911957]}}, {"type": "Feature", "properties": {"norad_id": 66690, "name": "TRANSPORTER-15AA", "group": "last-30-days", "lat": -65.79488296036922, "lon": 89.36835008555255, "alt_km": 520.7051784607029, "timestamp": "2025-12-26T23:26:40.920354+00:00", "meta": {"OBJECT_NAME": "TRANSPORTER-15AA", "OBJECT_ID": "2025-276AA", "EPOCH": "2025-12-26T15:49:27.870240", "MEAN_MOTION": 15.17109637, "ECCENTRICITY": 0.0003718, "INCLINATION": 97.4388, "RA_OF_ASC_NODE": 72.1595, "ARG_OF_PERICENTER": 230.0202, "MEAN_ANOMALY": 130.0705, "EPHEMERIS_TYPE": 0, "CLASSIFICATION_TYPE": "U", "NORAD_CAT_ID": 66690, "ELEMENT_SET_NO": 999, "REV_AT_EPOCH": 423, "BSTAR": 0.0004956, "MEAN_MOTION_DOT": 9.764e-05, "MEAN_MOTION_DDOT": 0}, "tle": {"line1": "1 66690U 25276AA  25360.65935035  .00009764  00000+0  49560-3 0  9993", "line2": "2 66690  97.4388  72.1595 0003718 230.0202 130.0705 15.17109637  4230"}}, "geometry": {"type": "Point", "coordinates": [89.36835008555255, -65.79488296036922]}}, {"type": "Feature", "properties": {"norad_id": 66691, "name": "TRANSPORTER-15AB", "group": "last-30-days", "lat": -51.56916969673745, "lon": 81.96655403982554, "alt_km": 520.1630530025595, "timestamp": "2025-12-26T23:26:40.920365+00:00", "meta": {"OBJECT_NAME": "TRANSPORTER-15AB", "OBJECT_ID": "2025-276AB", "EPOCH": "2025-12-26T17:20:37.091328", "MEAN_MOTION": 15.17379546, "ECCENTRICITY": 0.000384, "INCLINATION": 97.4412, "RA_OF_ASC_NODE": 72.2359, "ARG_OF_PERICENTER": 231.2844, "MEAN_ANOMALY": 128.8046, "EPHEMERIS_TYPE": 0, "CLASSIFICATION_TYPE": "U", "NORAD_CAT_ID": 66691, "ELEMENT_SET_NO": 999, "REV_AT_EPOCH": 424, "BSTAR": 0.00055434, "MEAN_MOTION_DOT": 0.00011016, "MEAN_MOTION_DDOT": 0}, "tle": {"line1": "1 66691U 25276AB  25360.72265152  .00011016  00000+0  55434-3 0  9998", "line2": "2 66691  97.4412  72.2359 0003840 231.2844 128.8046 15.17379546  4241"}}, "geometry": {"type": "Point", "coordinates": [81.96655403982554, -51.56916969673745]}}, {"type": "Feature", "properties": {"norad_id": 66692, "name": "TRANSPORTER-15AC", "group": "last-30-days", "lat": -33.528426251651084, "lon": 77.46527758095317, "alt_km": 519.6155084044412, "timestamp": "2025-12-26T23:26:40.920380+00:00", "meta": {"OBJECT_NAME": "TRANSPORTER-15AC", "OBJECT_ID": "2025-276AC", "EPOCH": "2025-12-26T04:36:08.314560", "MEAN_MOTION": 15.17447229, "ECCENTRICITY": 0.00017803, "INCLINATION": 97.4413, "RA_OF_ASC_NODE": 71.7258, "ARG_OF_PERICENTER": 246.4774, "MEAN_ANOMALY": 113.6272, "EPHEMERIS_TYPE": 0, "CLASSIFICATION_TYPE": "U", "NORAD_CAT_ID": 66692, "ELEMENT_SET_NO": 999, "REV_AT_EPOCH": 416, "BSTAR": 0.00030393663, "MEAN_MOTION_DOT": 6.017e-05, "MEAN_MOTION_DDOT": 0}, "tle": {"line1": "1 66692U 25276AC  25360.19176290  .00006017  00000+0  30394-3 0  9997", "line2": "2 66692  97.4413  71.7258 0001780 246.4774 113.6272 15.17447229  4164"}}, "geometry": {"type": "Point", "coordinates": [77.46527758095317, -33.528426251651084]}}, {"type": "Feature", "properties": {"norad_id": 66693, "name": "TRANSPORTER-15AD", "group": "last-30-days", "lat": -30.393755461113027, "lon": 76.8707666015202, "alt_km": 518.1222089594312, "timestamp": "2025-12-26T23:26:40.920391+00:00", "meta": {"OBJECT_NAME": "TRANSPORTER-15AD", "OBJECT_ID": "2025-276AD", "EPOCH": "2025-12-26T17:15:01.219104", "MEAN_MOTION": 15.17728696, "ECCENTRICITY": 0.0003271, "INCLINATION": 97.4366, "RA_OF_ASC_NODE": 72.2233, "ARG_OF_PERICENTER": 256.1636, "MEAN_ANOMALY": 103.9234, "EPHEMERIS_TYPE": 0, "CLASSIFICATION_TYPE": "U", "NORAD_CAT_ID": 66693, "ELEMENT_SET_NO": 999, "REV_AT_EPOCH": 424, "BSTAR": 0.00076227, "MEAN_MOTION_DOT": 0.00015334, "MEAN_MOTION_DDOT": 0}, "tle": {"line1": "1 66693U 25276AD  25360.71876411  .00015334  00000+0  76227-3 0  9995", "line2": "2 66693  97.4366  72.2233 0003271 256.1636 103.9234 15.17728696  4242"}}, "geometry": {"type": "Point", "coordinates": [76.8707666015202, -30.393755461113027]}}, {"type": "Feature", "properties": {"norad_id": 66694, "name": "YAM-9", "group": "last-30-days", "lat": -26.7267268357597, "lon": 76.26849953403558, "alt_km": 536.6223206094783, "timestamp": "2025-12-26T23:26:40.920402+00:00", "meta": {"OBJECT_NAME": "YAM-9", "OBJECT_ID": "2025-276AE", "EPOCH": "2025-12-26T17:13:22.886400", "MEAN_MOTION": 15.15340438, "ECCENTRICITY": 0.0013113, "INCLINATION": 97.4413, "RA_OF_ASC_NODE": 72.2413, "ARG_OF_PERICENTER": 137.8369, "MEAN_ANOMALY": 222.3874, "EPHEMERIS_TYPE": 0, "CLASSIFICATION_TYPE": "U", "NORAD_CAT_ID": 66694, "ELEMENT_SET_NO": 999, "REV_AT_EPOCH": 424, "BSTAR": -0.073549, "MEAN_MOTION_DOT": -0.01270509, "MEAN_MOTION_DDOT": 0}, "tle": {"line1": "1 66694U 25276AE  25360.71762600 -.01270509  00000+0 -73549-1 0  9992", "line2": "2 66694  97.4413  72.2413 0013113 137.8369 222.3874 15.15340438  4248"}}, "geometry": {"type": "Point", "coordinates": [76.26849953403558, -26.7267268357597]}}, {"type": "Feature", "properties": {"norad_id": 66695, "name": "IRIDE FM1", "group": "last-30-days", "lat": 45.397851167484895, "lon": 64.9076076287171, "alt_km": 507.16153329917506, "timestamp": "2025-12-26T23:26:40.920415+00:00", "meta": {"OBJECT_NAME": "IRIDE FM1", "OBJECT_ID": "2025-276AF", "EPOCH": "2025-12-26T10:35:22.917408", "MEAN_MOTION": 15.18322645, "ECCENTRICITY": 0.0001934, "INCLINATION": 97.4399, "RA_OF_ASC_NODE": 71.9951, "ARG_OF_PERICENTER": 145.0721, "MEAN_ANOMALY": 215.0641, "EPHEMERIS_TYPE": 0, "CLASSIFICATION_TYPE": "U", "NORAD_CAT_ID": 66695, "ELEMENT_SET_NO": 999, "REV_AT_EPOCH": 420, "BSTAR": 0.00092202, "MEAN_MOTION_DOT": 0.00018888, "MEAN_MOTION_DDOT": 0}, "tle": {"line1": "1 66695U 25276AF  25360.44123747  .00018888  00000+0  92202-3 0  9992", "line2": "2 66695  97.4399  71.9951 0001934 145.0721 215.0641 15.18322645  4206"}}, "geometry": {"type": "Point", "coordinates": [64.9076076287171, 45.397851167484895]}}, {"type": "Feature", "properties": {"norad_id": 66696, "name": "IRIDE FM2", "group": "last-30-days", "lat": -37.29954119785567, "lon": 78.1921101015461, "alt_km": 519.5458514235415, "timestamp": "2025-12-26T23:26:40.920426+00:00", "meta": {"OBJECT_NAME": "IRIDE FM2", "OBJECT_ID": "2025-276AG", "EPOCH": "2025-12-26T17:16:48.083808", "MEAN_MOTION": 15.17462766, "ECCENTRICITY": 0.0002525, "INCLINATION": 97.4382, "RA_OF_ASC_NODE": 72.2281, "ARG_OF_PERICENTER": 246.7875, "MEAN_ANOMALY": 113.3092, "EPHEMERIS_TYPE": 0, "CLASSIFICATION_TYPE": "U", "NORAD_CAT_ID": 66696, "ELEMENT_SET_NO": 999, "REV_AT_EPOCH": 424, "BSTAR": 0.00031265, "MEAN_MOTION_DOT": 6.194e-05, "MEAN_MOTION_DDOT": 0}, "tle": {"line1": "1 66696U 25276AG  25360.72000097  .00006194  00000+0  31265-3 0  9995", "line2": "2 66696  97.4382  72.2281 0002525 246.7875 113.3092 15.17462766  4247"}}, "geometry": {"type": "Point", "coordinates": [78.1921101015461, -37.29954119785567]}}]}